{
  "type": "FeatureCollection",
  "features": [
    {
      "type": "Feature",
      "properties": {
        "norad_id": 47100,
        "name": "FENGYUN 1C DEB",
        "group": "fengyun-1c-debris",
        "lat": 55.88151435353579,
        "lon": 152.6648713087584,
        "alt_km": 686.6329721239299,
        "timestamp": "2025-12-12T16:50:33.436117+00:00",
        "meta_object_name": "FENGYUN 1C DEB",
        "meta_object_id": "1999-025FBY",
        "meta_epoch": "2025-12-12T00:02:23.570880",
        "meta_mean_motion": 14.51407425,
        "meta_eccentricity": 0.0089326,
        "meta_inclination": 99.0207,
        "meta_ra_of_asc_node": 165.4745,
        "meta_arg_of_pericenter": 355.8769,
        "meta_mean_anomaly": 4.1677,
        "meta_ephemeris_type": 0,
        "meta_classification_type": "U",
        "meta_norad_cat_id": 47100,
        "meta_element_set_no": 999,
        "meta_rev_at_epoch": 26757,
        "meta_bstar": 0.002748,
        "meta_mean_motion_dot": 0.00011508,
        "meta_mean_motion_ddot": 0,
        "tle_line1": "1 47100U 99025FBY 25346.00166170  .00011508  00000+0  27480-2 0  9995",
        "tle_line2": "2 47100  99.0207 165.4745 0089326 355.8769   4.1677 14.51407425267579"
      },
      "geometry": {
        "type": "Point",
        "coordinates": [
          152.6648713087584,
          55.88151435353579
        ]
      }
    },
    {
      "type": "Feature",
      "properties": {
        "norad_id": 47104,
        "name": "FENGYUN 1C DEB",
        "group": "fengyun-1c-debris",
        "lat": -6.521134624494469,
        "lon": 17.280833903787016,
        "alt_km": 802.8481054720214,
        "timestamp": "2025-12-12T16:50:33.436128+00:00",
        "meta_object_name": "FENGYUN 1C DEB",
        "meta_object_id": "1999-025FCC",
        "meta_epoch": "2025-12-05T07:14:15.762912",
        "meta_mean_motion": 14.19416271,
        "meta_eccentricity": 0.00406545,
        "meta_inclination": 98.9092,
        "meta_ra_of_asc_node": 8.8127,
        "meta_arg_of_pericenter": 358.5803,
        "meta_mean_anomaly": 1.5251,
        "meta_ephemeris_type": 0,
        "meta_classification_type": "U",
        "meta_norad_cat_id": 47104,
        "meta_element_set_no": 999,
        "meta_rev_at_epoch": 62267,
        "meta_bstar": 0.00037828604,
        "meta_mean_motion_dot": 7.57e-06,
        "meta_mean_motion_ddot": 0,
        "tle_line1": "1 47104U 99025FCC 25339.30157133  .00000757  00000+0  37829-3 0  9996",
        "tle_line2": "2 47104  98.9092   8.8127 0040654 358.5803   1.5251 14.19416271622675"
      },
      "geometry": {
        "type": "Point",
        "coordinates": [
          17.280833903787016,
          -6.521134624494469
        ]
      }
    }
  ]
}